M2 PATHFINDER           
1 45727U 20037E   26068.47969609  .00004468  00000+0  32592-3 0  9994
2 45727  97.8158 258.5983 0012405 127.8041 232.4310 15.04175941310501
STARLINK-35215          
1 65813U 25218Y   26068.61708223  .00002956  00000+0  20900-3 0  9997
2 65813  97.5998 292.9582 0003099  91.3303 268.8279 15.05644670 24960
